{"fetched_at":"2026-03-29T16:36:15Z","count":15609,"tles":[{"name":"STARLINK-5410","line1":"1 54807U 22175BB  26087.89206011  .00001104  00000+0  87424-4 0  9995","line2":"2 54807  53.2179 302.5499 0001135  82.2940 277.8181 15.08842745183033","category":"Starlink"}]}